CTC1_L_00032016-03
1 10062U 26952FT  26075.70028935  .00000000  00000+0  00000-0 0  9996
2 10062  65.0000 180.0000 0000000   0.0000   0.0000 15.69614517    17
CTC1_L_00032016-04
1 10063U 24658XO  26075.70028935  .00000000  00000+0  00000-0 0  9998
2 10063  65.0000 180.0000 0000000   0.0000  90.0000 15.69614517    17
CTC1_L_00032017-01
1 10064U 25347IJ  26075.70028935  .00000000  00000+0  00000-0 0  9995
2 10064  65.0000 192.0000 0000000   0.0000 192.0000 15.69614517    14
CTC1_L_00032017-02
1 10065U 23247GV  26075.70028935  .00000000  00000+0  00000-0 0  9993
2 10065  65.0000 192.0000 0000000   0.0000 282.0000 15.69614517    15
CTC1_L_00032017-03
1 10066U 25758VV  26075.70028935  .00000000  00000+0  00000-0 0  9993
2 10066  65.0000 192.0000 0000000   0.0000  12.0000 15.69614517    17
CTC1_L_00032017-04
1 10067U 22858OZ  26075.70028935  .00000000  00000+0  00000-0 0  9992
2 10067  65.0000 192.0000 0000000   0.0000 102.0000 15.69614517    18
CTC1_L_00032018-01
1 10068U 26652YE  26075.70028935  .00000000  00000+0  00000-0 0  9999
2 10068  65.0000 204.0000 0000000   0.0000 204.0000 15.69614517    16
CTC1_L_00032018-02
1 10069U 24754HA  26075.70028935  .00000000  00000+0  00000-0 0  9991
2 10069  65.0000 204.0000 0000000   0.0000 294.0000 15.69614517    16
CTC1_L_00032018-03
1 10070U 26019TL  26075.70028935  .00000000  00000+0  00000-0 0  9999
2 10070  65.0000 204.0000 0000000   0.0000  24.0000 15.69614517    19
CTC1_L_00032018-04
1 10071U 23773XG  26075.70028935  .00000000  00000+0  00000-0 0  9994
2 10071  65.0000 204.0000 0000000   0.0000 114.0000 15.69614517    10
CTC1_L_00032019-01
1 10072U 26019FB  26075.70028935  .00000000  00000+0  00000-0 0  9991
2 10072  65.0000 216.0000 0000000   0.0000 216.0000 15.69614517    17
CTC1_L_00032019-02
1 10073U 24241XO  26075.70028935  .00000000  00000+0  00000-0 0  9997
2 10073  65.0000 216.0000 0000000   0.0000 306.0000 15.69614517    18
CTC1_L_00032019-03
1 10074U 22614SZ  26075.70028935  .00000000  00000+0  00000-0 0  9990
2 10074  65.0000 216.0000 0000000   0.0000  36.0000 15.69614517    19
CTC1_L_00032019-04
1 10075U 22122DI  26075.70028935  .00000000  00000+0  00000-0 0  9995
2 10075  65.0000 216.0000 0000000   0.0000 126.0000 15.69614517    10
CTC1_L_00032020-01
1 10076U 25826FD  26075.70028935  .00000000  00000+0  00000-0 0  9990
2 10076  65.0000 228.0000 0000000   0.0000 228.0000 15.69614517    17
CTC1_L_00032020-02
1 10077U 24826WB  26075.70028935  .00000000  00000+0  00000-0 0  9990
2 10077  65.0000 228.0000 0000000   0.0000 318.0000 15.69614517    18
CTC1_L_00032020-03
1 10078U 25922JS  26075.70028935  .00000000  00000+0  00000-0 0  9999
2 10078  65.0000 228.0000 0000000   0.0000  48.0000 15.69614517    19
CTC1_L_00032020-04
1 10079U 25959RQ  26075.70028935  .00000000  00000+0  00000-0 0  9990
2 10079  65.0000 228.0000 0000000   0.0000 138.0000 15.69614517    10
CTC1_L_00032021-01
1 10080U 25654WQ  26075.70028935  .00000000  00000+0  00000-0 0  9994
2 10080  65.0000 240.0000 0000000   0.0000 240.0000 15.69614517    10
CTC1_L_00032021-02
1 10081U 24443VH  26075.70028935  .00000000  00000+0  00000-0 0  9990
2 10081  65.0000 240.0000 0000000   0.0000 330.0000 15.69614517    11
CTC1_L_00032021-03
1 10082U 24688GY  26075.70028935  .00000000  00000+0  00000-0 0  9992
2 10082  65.0000 240.0000 0000000   0.0000  60.0000 15.69614517    12
CTC1_L_00032021-04
1 10083U 25325DH  26075.70028935  .00000000  00000+0  00000-0 0  9992
2 10083  65.0000 240.0000 0000000   0.0000 150.0000 15.69614517    13
CTC1_L_00032022-01
1 10084U 22900YR  26075.70028935  .00000000  00000+0  00000-0 0  9999
2 10084  65.0000 252.0000 0000000   0.0000 252.0000 15.69614517    10
CTC1_L_00032022-02
1 10085U 22711ZK  26075.70028935  .00000000  00000+0  00000-0 0  9990
2 10085  65.0000 252.0000 0000000   0.0000 342.0000 15.69614517    11
CTC1_L_00032022-03
1 10086U 26861OI  26075.70028935  .00000000  00000+0  00000-0 0  9991
2 10086  65.0000 252.0000 0000000   0.0000  72.0000 15.69614517    12
CTC1_L_00032022-04
1 10087U 24699OR  26075.70028935  .00000000  00000+0  00000-0 0  9999
2 10087  65.0000 252.0000 0000000   0.0000 162.0000 15.69614517    13
CTC1_L_00032023-01
1 10088U 24054DG  26075.70028935  .00000000  00000+0  00000-0 0  9995
2 10088  65.0000 264.0000 0000000   0.0000 264.0000 15.69614517    10
CTC1_L_00032023-02
1 10089U 24157SJ  26075.70028935  .00000000  00000+0  00000-0 0  9990
2 10089  65.0000 264.0000 0000000   0.0000 354.0000 15.69614517    11
CTC1_L_00032023-03
1 10090U 26722FT  26075.70028935  .00000000  00000+0  00000-0 0  9992
2 10090  65.0000 264.0000 0000000   0.0000  84.0000 15.69614517    13
CTC1_L_00032023-04
1 10091U 26539R   26075.70028935  .00000000  00000+0  00000-0 0  9999
2 10091  65.0000 264.0000 0000000   0.0000 174.0000 15.69614517    14
CTC1_L_00032024-01
1 10092U 22550LJ  26075.70028935  .00000000  00000+0  00000-0 0  9999
2 10092  65.0000 276.0000 0000000   0.0000 276.0000 15.69614517    11
CTC1_L_00032024-02
1 10093U 26578AA  26075.70028935  .00000000  00000+0  00000-0 0  9994
2 10093  65.0000 276.0000 0000000   0.0000   6.0000 15.69614517    13
CTC1_L_00032024-03
1 10094U 22070IS  26075.70028935  .00000000  00000+0  00000-0 0  9998
2 10094  65.0000 276.0000 0000000   0.0000  96.0000 15.69614517    13
CTC1_L_00032024-04
1 10095U 22818KN  26075.70028935  .00000000  00000+0  00000-0 0  9999
2 10095  65.0000 276.0000 0000000   0.0000 186.0000 15.69614517    14
CTC1_L_00032025-01
1 10096U 26034VN  26075.70028935  .00000000  00000+0  00000-0 0  9994
2 10096  65.0000 288.0000 0000000   0.0000 288.0000 15.69614517    11
CTC1_L_00032025-02
1 10097U 25241GP  26075.70028935  .00000000  00000+0  00000-0 0  9994
2 10097  65.0000 288.0000 0000000   0.0000  18.0000 15.69614517    13
CTC1_L_00032025-03
1 10098U 26504SO  26075.70028935  .00000000  00000+0  00000-0 0  9998
2 10098  65.0000 288.0000 0000000   0.0000 108.0000 15.69614517    14
CTC1_L_00032025-04
1 10099U 22412XE  26075.70028935  .00000000  00000+0  00000-0 0  9993
2 10099  65.0000 288.0000 0000000   0.0000 198.0000 15.69614517    14
CTC1_L_00032026-01
1 10100U 24088FP  26075.70028935  .00000000  00000+0  00000-0 0  9997
2 10100  65.0000 300.0000 0000000   0.0000 300.0000 15.69614517    17
CTC1_L_00032026-02
1 10101U 26920IE  26075.70028935  .00000000  00000+0  00000-0 0  9995
2 10101  65.0000 300.0000 0000000   0.0000  30.0000 15.69614517    18
CTC1_L_00032026-03
1 10102U 26483YI  26075.70028935  .00000000  00000+0  00000-0 0  9990
2 10102  65.0000 300.0000 0000000   0.0000 120.0000 15.69614517    19
CTC1_L_00032026-04
1 10103U 26720XW  26075.70028935  .00000000  00000+0  00000-0 0  9995
2 10103  65.0000 300.0000 0000000   0.0000 210.0000 15.69614517    10
CTC1_L_00032027-01
1 10104U 24837OW  26075.70028935  .00000000  00000+0  00000-0 0  9993
2 10104  65.0000 312.0000 0000000   0.0000 312.0000 15.69614517    17
CTC1_L_00032027-02
1 10105U 26762AM  26075.70028935  .00000000  00000+0  00000-0 0  9993
2 10105  65.0000 312.0000 0000000   0.0000  42.0000 15.69614517    18
CTC1_L_00032027-03
1 10106U 23441RD  26075.70028935  .00000000  00000+0  00000-0 0  9995
2 10106  65.0000 312.0000 0000000   0.0000 132.0000 15.69614517    19
CTC1_L_00032027-04
1 10107U 23704OV  26075.70028935  .00000000  00000+0  00000-0 0  9998
2 10107  65.0000 312.0000 0000000   0.0000 222.0000 15.69614517    10
CTC1_L_00032028-01
1 10108U 23931UJ  26075.70028935  .00000000  00000+0  00000-0 0  9991
2 10108  65.0000 324.0000 0000000   0.0000 324.0000 15.69614517    17
CTC1_L_00032028-02
1 10109U 23081DL  26075.70028935  .00000000  00000+0  00000-0 0  9998
2 10109  65.0000 324.0000 0000000   0.0000  54.0000 15.69614517    18
CTC1_L_00032028-03
1 10110U 23188OD  26075.70028935  .00000000  00000+0  00000-0 0  9998
2 10110  65.0000 324.0000 0000000   0.0000 144.0000 15.69614517    10
CTC1_L_00032028-04
1 10111U 25032VJ  26075.70028935  .00000000  00000+0  00000-0 0  9999
2 10111  65.0000 324.0000 0000000   0.0000 234.0000 15.69614517    11
CTC1_L_00032029-01
1 10112U 23566VN  26075.70028935  .00000000  00000+0  00000-0 0  9990
2 10112  65.0000 336.0000 0000000   0.0000 336.0000 15.69614517    18
CTC1_L_00032029-02
1 10113U 25456NJ  26075.70028935  .00000000  00000+0  00000-0 0  9991
2 10113  65.0000 336.0000 0000000   0.0000  66.0000 15.69614517    19
CTC1_L_00032029-03
1 10114U 25762ZE  26075.70028935  .00000000  00000+0  00000-0 0  9992
2 10114  65.0000 336.0000 0000000   0.0000 156.0000 15.69614517    10
CTC1_L_00032029-04
1 10115U 26304SM  26075.70028935  .00000000  00000+0  00000-0 0  9996
2 10115  65.0000 336.0000 0000000   0.0000 246.0000 15.69614517    11
CTC1_L_00032030-01
1 10116U 24014BZ  26075.70028935  .00000000  00000+0  00000-0 0  9993
2 10116  65.0000 348.0000 0000000   0.0000 348.0000 15.69614517    18
CTC1_L_00032030-02
1 10117U 25538IO  26075.70028935  .00000000  00000+0  00000-0 0  9996
2 10117  65.0000 348.0000 0000000   0.0000  78.0000 15.69614517    19
CTC1_L_00032030-03
1 10118U 26221FM  26075.70028935  .00000000  00000+0  00000-0 0  9997
2 10118  65.0000 348.0000 0000000   0.0000 168.0000 15.69614517    10
CTC1_L_00032030-04
1 10119U 25163YP  26075.70028935  .00000000  00000+0  00000-0 0  9992
2 10119  65.0000 348.0000 0000000   0.0000 258.0000 15.69614517    11
